iyear,imonth,iday,approxdate,extended,resolution,country,country_txt,region,region_txt,provstate,city,latitude,longitude,specificity,vicinity,location,summary,crit1,crit2,crit3,doubtterr,alternative,alternative_txt,multiple,success,suicide,attacktype1,attacktype1_txt,attacktype2,attacktype2_txt,attacktype3,attacktype3_txt,targtype1,targtype1_txt,targsubtype1,targsubtype1_txt,corp1,target1,natlty1,natlty1_txt,targtype2,targtype2_txt,targsubtype2,targsubtype2_txt,corp2,target2,natlty2,natlty2_txt,targtype3,targtype3_txt,targsubtype3,targsubtype3_txt,corp3,target3,natlty3,natlty3_txt,gname,gsubname,gname2,gsubname2,gname3,gsubname3,motive,guncertain1,guncertain2,guncertain3,individual,nperps,nperpcap,claimed,claimmode,claimmode_txt,claim2,claimmode2,claimmode2_txt,claim3,claimmode3,claimmode3_txt,compclaim,weaptype1,weaptype1_txt,weapsubtype1,weapsubtype1_txt,weaptype2,weaptype2_txt,weapsubtype2,weapsubtype2_txt,weaptype3,weaptype3_txt,weapsubtype3,weapsubtype3_txt,weaptype4,weaptype4_txt,weapsubtype4,weapsubtype4_txt,weapdetail,nkill,nkillus,nkillter,nwound,nwoundus,nwoundte,property,propextent,propextent_txt,propvalue,propcomment,ishostkid,nhostkid,nhostkidus,nhours,ndays,divert,kidhijcountry,ransom,ransomamt,ransomamtus,ransompaid,ransompaidus,ransomnote,hostkidoutcome,hostkidoutcome_txt,nreleased,addnotes,scite1,scite2,scite3,dbsource,INT_LOG,INT_IDEO,INT_MISC,INT_ANY,related
1985,3,21,,0,,53,Cyprus,8,Western Europe,Nicosia,Nicosia,35.166739,33.367591,1,0,,,1,1,1,0,,,0,1,0,3,Bombing/Explosion,,,,,6,Airports & Aircraft,43,Airline Officer/Personnel,,Jordanian Airlines Office,102,Jordan,,,,,,,,,,,,,,,,,Black September II,,,,,,,0,,,0,,,,,,,,,,,,,6,Explosives/Bombs/Dynamite,16,Unknown Explosive Type,,,,,,,,,,,,,Explosive,0,,,,,,1,,,,"Damages: explosion, broken windows (offices)",0,,,,,,,0,,,,,,,,,,,,,PGIS,1,1,1,1,
1985,6,14,,0,,603,United Kingdom,8,Western Europe,Northern Ireland,Belfast,54.597269,-5.930109,1,0,,,1,1,1,0,,,0,1,0,3,Bombing/Explosion,,,,,14,Private Citizens & Property,74,Marketplace/Plaza/Square,,Center of Belfast,233,Northern Ireland,,,,,,,,,,,,,,,,,Irish Republican Army (IRA),,,,,,,0,,,0,,,,,,,,,,,,,6,Explosives/Bombs/Dynamite,15,Vehicle,,,,,,,,,,,,,Explosive,0,,,24,,,1,,,,"Damages: explosion/car bomb, damaged unknown amount of commercial premises",0,,,,,,,0,,,,,,,,,,,,,PGIS,0,0,1,1,
1985,6,19,,0,,362,West Germany (FRG),8,Western Europe,Hesse,Frankfurt,50.111445,8.680615,1,0,,,1,1,1,0,,,0,1,0,3,Bombing/Explosion,,,,,6,Airports & Aircraft,44,Airport,,international airport close to Alitalia airlines,362,West Germany (FRG),,,,,,,,,,,,,,,,,Unknown,,,,,,,0,,,0,,,,,,,,,,,,,6,Explosives/Bombs/Dynamite,16,Unknown Explosive Type,,,,,,,,,,,,,Explosive,3,,,42,,,1,,,,,0,,,,,,,0,,,,,,,,,,,,,PGIS,-9,-9,0,-9,
1985,7,1,,0,,185,Spain,8,Western Europe,Madrid,Madrid,40.416691,-3.700345,1,0,,,1,1,1,0,,,0,1,0,3,Bombing/Explosion,,,,,6,Airports & Aircraft,43,Airline Officer/Personnel,British Airways,Ticket Office,216,Great Britain,1,Business,,,Trans World Airlines,Administration office (adjoins the B.A. Ticket office),217,United States,,,,,,,,,Hezbollah,Organization of the Oppressed on Earth,,,,,,1,,,0,,,,,,,,,,,,,6,Explosives/Bombs/Dynamite,16,Unknown Explosive Type,,,,,,,,,,,,,Explosive,1,,,27,,,1,,,,,0,,,,,,,0,,,,,,,,,,,,,PGIS,1,1,1,1,
1985,7,1,,0,,98,Italy,8,Western Europe,Lazio,Rome,41.89052,12.494249,1,0,,,1,1,1,0,,,0,1,0,3,Bombing/Explosion,,,,,6,Airports & Aircraft,44,Airport,,International terminal - Fiumicino Airport,98,Italy,,,,,,,,,,,,,,,,,Unknown,,,,,,,0,,,0,,,,,,,,,,,,,6,Explosives/Bombs/Dynamite,16,Unknown Explosive Type,,,,,,,,,,,,,Explosive,0,,,15,,,1,4,Unknown,,"Damages: explosion, extent of damage unknown, caused several fires (airport terminal)",0,,,,,,,0,,,,,,,,,,,,,PGIS,-9,-9,0,-9,
1985,10,18,,0,,603,United Kingdom,8,Western Europe,Northern Ireland,Londonderry,54.99451,-7.319996,1,0,,,1,1,1,0,,,0,1,0,3,Bombing/Explosion,,,,,14,Private Citizens & Property,74,Marketplace/Plaza/Square,,shoppin center (richmond center),233,Northern Ireland,,,,,,,,,,,,,,,,,Irish Republican Army (IRA),,,,,,,0,,,0,,,,,,,,,,,,,6,Explosives/Bombs/Dynamite,15,Vehicle,,,,,,,,,,,,,Explosive,0,,,30,,,1,,,,,0,,,,,,,0,,,,,,,,,,,,,PGIS,0,0,1,1,
1985,11,30,,0,,603,United Kingdom,8,Western Europe,Northern Ireland,Belfast,54.597269,-5.930109,1,0,,,1,1,1,0,,,0,1,0,2,Armed Assault,,,,,14,Private Citizens & Property,68,Named Civilian,Alleged criminal,"Edward Taggart, 19, Catholic",233,Northern Ireland,,,,,,,,,,,,,,,,,Irish Republican Army (IRA),,,,,,,0,,,0,,,,,,,,,,,,,5,Firearms,5,Unknown Gun Type,,,,,,,,,,,,,Firearm,1,,,,,,0,,,,,0,,,,,,,0,,,,,,,,,,,,,CAIN,0,0,1,1,
1985,12,27,,0,,15,Austria,8,Western Europe,Vienna,Vienna,48.208174,16.373819,1,0,,,1,1,1,0,,,0,1,0,3,Bombing/Explosion,,,,,6,Airports & Aircraft,44,Airport,Viennas Schwechat Airport,El Al Airline Counter,97,Israel,,,,,,,,,,,,,,,,,Abu Nidal Organization (ANO),,,,,,,0,,,0,3,,,,,,,,,,,,6,Explosives/Bombs/Dynamite,7,Grenade,5,Firearms,2,Automatic Weapon,,,,,,,,,Grenade; Automatic firearm,4,0,1,38,0,2,1,,,,,0,,,,,,,0,,,,,,,,,,,,,PGIS,0,1,1,1,
1985,12,27,,0,,98,Italy,8,Western Europe,Lazio,Rome,41.89052,12.494249,1,0,,,1,1,1,0,,,0,1,0,3,Bombing/Explosion,,,,,6,Airports & Aircraft,44,Airport,,Check in desk of El Al Airlines,97,Israel,,,,,,,,,,,,,,,,,Abu Nidal Organization (ANO),,,,,,,0,,,0,4,,,,,,,,,,,,5,Firearms,2,Automatic Weapon,6,Explosives/Bombs/Dynamite,7,Grenade,,,,,,,,,Automatic firearms; Grenades,16,5,3,81,4,0,1,,,,,0,,,,,,,0,,,,,,,,,,,,,PGIS,0,1,1,1,
1986,3,15,,0,,603,United Kingdom,8,Western Europe,Northern Ireland,Belfast,54.597269,-5.930109,1,0,,,1,1,1,0,,,0,1,0,8,Unarmed Assault,,,,,14,Private Citizens & Property,69,Religion Identified,,"John O'Neill, 25, Catholic",233,Northern Ireland,,,,,,,,,,,,,,,,,Ulster Volunteer Force (UVF),,,,,,,0,,,0,,,,,,,,,,,,,9,Melee,22,"Hands, Feet, Fists",,,,,,,,,,,,,Beaten to death,1,,,,,,0,,,,,0,,,,,,,0,,,,,,,,,,,,,CAIN,0,0,1,1,
1986,3,20,,0,,69,France,8,Western Europe,Ile-de-France,Paris,48.856614,2.352222,1,0,,,1,1,1,0,,,0,1,0,3,Bombing/Explosion,,,,,14,Private Citizens & Property,74,Marketplace/Plaza/Square,,shopping arcade (Champs-Elysees),69,France,,,,,,,,,,,,,,,,,Committee of Solidarity with Arab and Middle East Political Prisoners (CSPPA),,,,,,,0,,,0,1,,,,,,,,,,,,6,Explosives/Bombs/Dynamite,16,Unknown Explosive Type,,,,,,,,,,,,,Explosive,2,,1,28,,,1,,,,,0,,,,,,,0,,,,,,,,,,,,,PGIS,1,1,0,1,
1986,5,3,,0,,603,United Kingdom,8,Western Europe,Northern Ireland,Belfast,54.597269,-5.930109,1,0,,,1,1,1,0,,,0,1,0,8,Unarmed Assault,,,,,14,Private Citizens & Property,69,Religion Identified,,"Mark Frizzell, 17, Protestant",233,Northern Ireland,,,,,,,,,,,,,,,,,Irish Republican Extremists,,,,,,,0,,,0,,,,,,,,,,,,,9,Melee,22,"Hands, Feet, Fists",,,,,,,,,,,,,Beaten to death,1,,,,,,0,,,,,0,,,,,,,0,,,,,,,,,,,,,CAIN,0,0,1,1,
1986,7,19,,0,,185,Spain,8,Western Europe,Basque Country,Donostia-San Sebastian,43.320812,-1.984447,1,0,,,1,1,1,0,,,0,1,0,7,Facility/Infrastructure Attack,,,,,14,Private Citizens & Property,73,Vehicles/Transportation,,Private Vehicle,69,France,,,,,,,,,,,,,,,,,Basque Fatherland and Freedom (ETA),,,,,,,0,,,0,,,,,,,,,,,,,8,Incendiary,,,,,,,,,,,,,,,Incendiary,,,,,,,1,3,Minor (likely < $1 million),20000,,0,,,,,,,0,,,,,,,,,,,,,PGIS,0,1,1,1,
1986,7,19,,0,,185,Spain,8,Western Europe,Basque Country,Bilbao,43.256963,-2.923441,1,0,,,1,1,1,0,,,0,1,0,2,Armed Assault,,,,,14,Private Citizens & Property,73,Vehicles/Transportation,,Private Vehicle,69,France,,,,,,,,,,,,,,,,,Basque Fatherland and Freedom (ETA),,,,,,,0,,,0,,,,,,,,,,,,,8,Incendiary,,,,,,,,,,,,,,,Incendiary,,,0,,,0,1,3,Minor (likely < $1 million),20000,,0,,,,,,,0,,,,,,,,,,,,,PGIS,0,1,1,1,
1986,8,14,,0,,185,Spain,8,Western Europe,Basque Country,Bilbao,43.256963,-2.923441,1,0,,,1,1,1,0,,,0,1,0,3,Bombing/Explosion,,,,,14,Private Citizens & Property,73,Vehicles/Transportation,,car (remote-controlled),185,Spain,,,,,,,,,,,,,,,,,Basque Fatherland and Freedom (ETA),,,,,,,0,,,0,,,,,,,,,,,,,6,Explosives/Bombs/Dynamite,15,Vehicle,,,,,,,,,,,,,Remote triggered,,,,,,,1,4,Unknown,,No damage details given,0,,,,,,,0,,,,,,,,,,,,,PGIS,0,1,0,1,
1986,12,6,,0,,603,United Kingdom,8,Western Europe,Northern Ireland,Lisburn,54.510893,-6.042726,1,0,,,1,1,1,0,,,0,1,0,8,Unarmed Assault,,,,,14,Private Citizens & Property,69,Religion Identified,,"Paul Bradley, 30, Catholic",233,Northern Ireland,,,,,,,,,,,,,,,,,Protestant extremists,,,,,,,0,,,0,,,,,,,,,,,,,9,Melee,22,"Hands, Feet, Fists",,,,,,,,,,,,,Beaten to death,1,,,,,,0,,,,,0,,,,,,,0,,,,,,,,,,,,,CAIN,-9,-9,1,1,
1986,12,12,,0,,603,United Kingdom,8,Western Europe,Northern Ireland,Killen,54.673252,-7.627484,1,0,,,1,1,1,0,,,0,1,0,3,Bombing/Explosion,,,,,14,Private Citizens & Property,69,Religion Identified,,"Desmond Caldwell, 44, Protestant",233,Northern Ireland,,,,,,,,,,,,,,,,,Irish Republican Army (IRA),,,,,,,0,,,0,,,,,,,,,,,,,6,Explosives/Bombs/Dynamite,16,Unknown Explosive Type,,,,,,,,,,,,,Booby-trap bomb,1,,,,,,1,,,,,0,,,,,,,0,,,,,,,,,,,,,CAIN,0,0,1,1,
1987,12,16,,0,,603,United Kingdom,8,Western Europe,Northern Ireland,Tullyally,54.973818,-7.288049,1,0,,,1,1,1,0,,,0,1,0,3,Bombing/Explosion,,,,,14,Private Citizens & Property,69,Religion Identified,,"Gerard Doherty, 68, Catholic",233,Northern Ireland,,,,,,,,,,,,,,,,,Unknown,,,,,,,0,,,0,,,,,,,,,,,,,6,Explosives/Bombs/Dynamite,16,Unknown Explosive Type,,,,,,,,,,,,,Bomb,1,,,,,,1,,,,,0,,,,,,,0,,,,,,,,,,,,,CAIN,-9,-9,1,1,
1988,3,16,,0,,603,United Kingdom,8,Western Europe,Northern Ireland,Belfast,54.597269,-5.930109,1,0,,,1,1,1,0,,,0,1,0,3,Bombing/Explosion,,,,,14,Private Citizens & Property,78,"Procession/Gathering (funeral, wedding, birthday, religious)",,Funeral,233,Northern Ireland,,,,,,,,,,,,,,,,,Protestant extremists,,,,,,,0,,,0,1,,,,,,,,,,,,5,Firearms,3,Handgun,6,Explosives/Bombs/Dynamite,7,Grenade,,,,,,,,,Pistol; Grenades,3,,,60,,,1,,,,,0,,,,,,,0,,,,,,,,,,,,,PGIS,-9,-9,1,1,
1988,8,3,,0,,603,United Kingdom,8,Western Europe,Northern Ireland,Lisburn,54.510893,-6.042726,1,0,,,1,1,1,0,,,0,1,0,3,Bombing/Explosion,,,,,14,Private Citizens & Property,74,Marketplace/Plaza/Square,,Shopping Area,233,Northern Ireland,,,,,,,,,,,,,,,,,Irish Republican Army (IRA),,,,,,,0,,,0,,,,,,,,,,,,,6,Explosives/Bombs/Dynamite,16,Unknown Explosive Type,,,,,,,,,,,,,Explosive,1,,,18,,,1,,,,,0,,,,,,,0,,,,,,,,,,,,,PGIS,0,0,1,1,
1988,8,31,,0,,603,United Kingdom,8,Western Europe,Northern Ireland,Londonderry,54.99451,-7.319996,1,0,,,1,1,1,0,,,0,1,0,3,Bombing/Explosion,,,,,14,Private Citizens & Property,69,Religion Identified,private home,"Sean Dalton, 55, Sheila Lewis, 60 and Gerard Curran, Catholics",233,Northern Ireland,,,,,,,,,,,,,,,,,Irish Republican Army (IRA),,,,,,,0,,,0,,,,,,,,,,,,,6,Explosives/Bombs/Dynamite,16,Unknown Explosive Type,,,,,,,,,,,,,Booby-trap bomb,3,,,,,,1,,,,,0,,,,,,,0,,,,,,,,,,,,,CAIN,0,0,1,1,
1989,12,7,,0,,603,United Kingdom,8,Western Europe,Northern Ireland,Lisburn,54.510893,-6.042726,1,0,,,1,1,1,0,,,0,1,0,3,Bombing/Explosion,,,,,14,Private Citizens & Property,74,Marketplace/Plaza/Square,Govt,City Center (Market Square),233,Northern Ireland,,,,,,,,,,,,,,,,,Irish Republican Army (IRA),,,,,,,0,,,0,,,,,,,,,,,,,6,Explosives/Bombs/Dynamite,15,Vehicle,,,,,,,,,,,,,Explosive,0,,,21,,,1,,,,,0,,,,,,,0,,,,,,,,,,,,,PGIS,0,0,1,1,
1991,2,18,,0,,603,United Kingdom,8,Western Europe,England,London,51.500152,-0.126236,1,0,,,1,1,1,0,,,0,1,0,3,Bombing/Explosion,,,,,19,Transportation,100,Train/Train Tracks/Trolley,,Victoria Railway Station,216,Great Britain,,,,,,,,,,,,,,,,,Irish Republican Army (IRA),,,,,,,0,,,0,,,,,,,,,,,,,6,Explosives/Bombs/Dynamite,16,Unknown Explosive Type,,,,,,,,,,,,,Explosive,1,,,40,,,1,,,,,0,,,,,,,0,,,,,,,,,,,,,PGIS,1,0,1,1,
1991,5,15,,0,,185,Spain,8,Western Europe,Murcia,Roldan,37.797491,-1.009157,1,0,,,1,1,1,-9,,,0,1,0,3,Bombing/Explosion,,,,,14,Private Citizens & Property,76,House/Apartment/Residence,,private residence,185,Spain,,,,,,,,,,,,,,,,,Unknown,,,,,,,0,,,0,,,,,,,,,,,,,6,Explosives/Bombs/Dynamite,9,Letter Bomb,,,,,,,,,,,,,Package bomb,2,,,,,,1,,,,,0,,,,,,,0,,,,,,,,,,,,,PGIS,-9,-9,0,-9,
1991,5,19,,0,,185,Spain,8,Western Europe,Murcia,Lorca,37.671308,-1.698792,1,0,,,1,1,1,0,,,0,1,0,3,Bombing/Explosion,,,,,14,Private Citizens & Property,73,Vehicles/Transportation,,private vehicle,185,Spain,,,,,,,,,,,,,,,,,Unknown,,,,,,,0,,,0,,,,,,,,,,,,,6,Explosives/Bombs/Dynamite,16,Unknown Explosive Type,,,,,,,,,,,,,Explosive,,,,,,,1,3,Minor (likely < $1 million),10000,,0,,,,,,,0,,,,,,,,,,,,,PGIS,-9,-9,0,-9,
1991,6,21,,0,,96,Ireland,8,Western Europe,Sligo,Mullaghmore,54.466769,-8.450077,1,0,,,1,1,1,-9,,,0,1,0,8,Unarmed Assault,,,,,14,Private Citizens & Property,69,Religion Identified,,"Margaret Perry, 26, Catholic",233,Northern Ireland,,,,,,,,,,,,,,,,,Unknown,,,,,,,0,,,0,,,,,,,,,,,,,9,Melee,22,"Hands, Feet, Fists",,,,,,,,,,,,,Beaten to death,1,,,,,,0,,,,,0,,,,,,Ireland,0,,,,,,4,Hostage(s) killed (not during rescue attempt),,,,,,CAIN,-9,-9,1,1,
1991,8,3,,0,,185,Spain,8,Western Europe,Castile-La Mancha,Toledo,39.856779,-4.024477,2,0,,,1,1,1,0,,,0,1,0,3,Bombing/Explosion,,,,,19,Transportation,100,Train/Train Tracks/Trolley,railway,Madrid-Sevilla line,185,Spain,,,,,,,,,,,,,,,,,Basque Fatherland and Freedom (ETA),,,,,,,0,,,0,,,,,,,,,,,,,6,Explosives/Bombs/Dynamite,16,Unknown Explosive Type,,,,,,,,,,,,,Explosive,,,,,,,1,,,,,0,,,,,,,0,,,,,,,,,,,,,PGIS,0,1,0,1,
1991,8,3,,0,,185,Spain,8,Western Europe,Castile and Leon,Palencia district,42.012458,-4.531175,3,0,,,1,1,1,0,,,0,1,0,3,Bombing/Explosion,,,,,19,Transportation,100,Train/Train Tracks/Trolley,railway,Madrid-Gijon line,185,Spain,,,,,,,,,,,,,,,,,Basque Fatherland and Freedom (ETA),,,,,,,0,,,0,,,,,,,,,,,,,6,Explosives/Bombs/Dynamite,16,Unknown Explosive Type,,,,,,,,,,,,,Explosive,,,,,,,1,,,,,0,,,,,,,0,,,,,,,,,,,,,PGIS,0,1,0,1,
1991,8,20,,0,,185,Spain,8,Western Europe,La Rioja,Unknown,42.291718,-2.523665,4,1,,,1,1,1,0,,,0,1,0,3,Bombing/Explosion,,,,,19,Transportation,100,Train/Train Tracks/Trolley,railway,line between Logrono and Miranda de Ebro,185,Spain,,,,,,,,,,,,,,,,,Basque Fatherland and Freedom (ETA),,,,,,,0,,,0,,,,,,,,,,,,,6,Explosives/Bombs/Dynamite,16,Unknown Explosive Type,,,,,,,,,,,,,Explosive,,,,,,,1,,,,,0,,,,,,,0,,,,,,,,,,,,,PGIS,0,1,0,1,
1992,2,28,,0,,603,United Kingdom,8,Western Europe,England,London,51.500152,-0.126236,1,0,,,1,1,1,0,,,0,1,0,3,Bombing/Explosion,,,,,19,Transportation,100,Train/Train Tracks/Trolley,railway,London Bridge Station,216,Great Britain,,,,,,,,,,,,,,,,,Irish Republican Army (IRA),,,,,,,0,,,0,,,,,,,,,,,,,6,Explosives/Bombs/Dynamite,16,Unknown Explosive Type,,,,,,,,,,,,,Explosive,0,,,28,,,1,,,,,0,,,,,,,0,,,,,,,,,,,,,PGIS,1,0,1,1,
1992,4,10,,0,,603,United Kingdom,8,Western Europe,England,London,51.500152,-0.126236,1,0,,,1,1,1,0,,,0,1,0,3,Bombing/Explosion,,,,,14,Private Citizens & Property,75,Village/City/Town/Suburb,,London Financial District,216,Great Britain,,,,,,,,,,,,,,,,,Irish Republican Army (IRA),,,,,,,0,,,0,,,,,,,,,,,,,6,Explosives/Bombs/Dynamite,15,Vehicle,,,,,,,,,,,,,Explosive,3,,,90,,,1,1,Catastrophic (likely > $1 billion),2700000000,"Damages: explosion, destroyed historic building and damaged surrounding buildings, estimated at $2,700,000,000 (London financial district)",0,,,,,,,0,,,,,,,,,,,,,PGIS,1,0,1,1,
1992,12,1,,0,,603,United Kingdom,8,Western Europe,Northern Ireland,Belfast,54.597269,-5.930109,1,0,,,1,1,1,0,,,0,1,0,3,Bombing/Explosion,,,,,14,Private Citizens & Property,74,Marketplace/Plaza/Square,,"Offices, Ann Street",233,Northern Ireland,,,,,,,,,,,,,,,,,Irish Republican Army (IRA),,,,,,,1,,,0,,,,,,,,,,,,,6,Explosives/Bombs/Dynamite,15,Vehicle,,,,,,,,,,,,,Explosive,0,,,27,,,1,3,Minor (likely < $1 million),100000,"Damages: explosion/car bomb, damaged offices, estimated at $100,000",0,,,,,,,0,,,,,,,,,,,,,PGIS,0,0,1,1,
1992,12,3,,0,,603,United Kingdom,8,Western Europe,England,Manchester,53.480713,-2.234377,1,0,,,1,1,1,0,,,0,1,0,3,Bombing/Explosion,,,,,14,Private Citizens & Property,74,Marketplace/Plaza/Square,,Arndale Center Shopping Area,216,Great Britain,,,,,,,,,,,,,,,,,Irish Republican Army (IRA),,,,,,,0,,,0,,,,,,,,,,,,,6,Explosives/Bombs/Dynamite,16,Unknown Explosive Type,,,,,,,,,,,,,Explosive,0,,,58,,,1,2,Major (likely > $1 million but < $1 billion),15000000,"Damages: explosion, damaged shopping area estimated at 10 million pounds",0,,,,,,,0,,,,,,,,,,,,,PGIS,1,0,1,1,
1992,12,8,,0,,603,United Kingdom,8,Western Europe,Northern Ireland,Londonderry,54.99451,-7.319996,1,0,,,1,1,1,0,,,0,1,0,2,Armed Assault,,,,,14,Private Citizens & Property,,,alleged criminal,"John Collett, 36, Catholic",233,Northern Ireland,,,,,,,,,,,,,,,,,Irish Republican Army (IRA),,,,,,,0,,,0,,,,,,,,,,,,,5,Firearms,5,Unknown Gun Type,,,,,,,,,,,,,Firearm,1,,,,,,0,,,,,0,,,,,,,0,,,,,,,,,,,,,CAIN,0,0,1,1,
1994,1,2,,0,,21,Belgium,8,Western Europe,Brussels,Brussels,50.850335,4.351685,1,0,,,1,1,1,0,,,0,1,0,2,Armed Assault,,,,,14,Private Citizens & Property,83,Protester,Uknown,Pro-Kurdish Freedom March,209,Turkey,,,,,,,,,,,,,,,,,Anti-Kurdish Turks,,,,,,,0,,,0,,,,,,,,,,,,,9,Melee,23,Knife or Other Sharp Object,8,Incendiary,,,,,,,,,,,Knife; Incendiary,,,,,,,1,,,,,0,,,,,,,0,,,,,,,,,,,,,PGIS,1,0,1,1,
1995,7,25,,0,,69,France,8,Western Europe,Ile-de-France,Paris,48.856614,2.352222,1,0,,,1,1,1,0,,,0,1,0,3,Bombing/Explosion,,,,,19,Transportation,102,Subway,,Metro train,69,France,,,,,,,,,,,,,,,,,Armed Islamic Group (GIA),,,,,,,0,,,0,,,,,,,,,,,,,6,Explosives/Bombs/Dynamite,16,Unknown Explosive Type,,,,,,,,,,,,,Explosive,7,,,86,,,1,,,,,0,,,,,,,0,,,,,,,,,,,,,PGIS,1,1,0,1,
1995,10,17,,0,,69,France,8,Western Europe,Ile-de-France,Paris,48.856614,2.352222,1,0,,,1,1,1,0,,,0,1,0,3,Bombing/Explosion,,,,,19,Transportation,102,Subway,French Gov't,Underground train carriage,69,France,,,,,,,,,,,,,,,,,Armed Islamic Group (GIA),,,,,,,0,,,0,,,,,,,,,,,,,6,Explosives/Bombs/Dynamite,16,Unknown Explosive Type,,,,,,,,,,,,,Explosive,0,,,29,,,1,,,,,0,,,,,,,0,,,,,,,,,,,,,PGIS,1,1,0,1,
1996,6,15,,0,,603,United Kingdom,8,Western Europe,England,Manchester,53.484224,-2.24117,1,0,Corporation Street outside the Arndale shopping center,"6/15/1996: At or around 11:20 am a truck packed with at least 3,000 pounds of explosives exploded on Corporation Street outside the Arndale shopping center in central Manchester, England, United Kingdom.  Due to a number of phone calls made before the explosion by members of the IRA, an evacuation was in progress at the time of the explosion.  At least 200 people were injured, mostly due to flying glass and other debris, but no one was killed.  No individuals have ever been convicted in the attack.",1,1,1,0,,,0,1,0,3,Bombing/Explosion,,,,,14,Private Citizens & Property,74,Marketplace/Plaza/Square,,Arndale Centre and Market Street,216,Great Britain,,,,,,,,,,,,,,,,,Irish Republican Army (IRA),,,,,,,0,,,0,-99,0,1,3,Call (pre-incident),,,,,,,0,6,Explosives/Bombs/Dynamite,15,Vehicle,,,,,,,,,,,,,"3,000 lbs of explosives were packed into a truck",0,0,0,200,0,0,1,1,Catastrophic (likely > $1 billion),1079120000,£700 million (value in US Dollars estimated),0,,,,,,,,,,,,,,,,,"""1996: Huge explosion rocks central Manchester,"" BBC News, On This Day 1959-2005, June 15.","James Cusick, ""The Manchester Bombing: Device was as big as anything to hit mainland Britain,"" The Independent, June 17, 1996.","""Manchester bomb: no justice,"" BBC, June 15, 2006.",UMD Miscellaneous,1,0,1,1,
1996,7,20,,0,,185,Spain,8,Western Europe,Catalonia,Reus,41.154818,1.108676,1,0,,,1,1,1,0,,,0,1,0,3,Bombing/Explosion,,,,,6,Airports & Aircraft,44,Airport,,airport (tourist trade),185,Spain,,,,,,,,,,,,,,,,,Basque Fatherland and Freedom (ETA),,,,,,,0,,,0,,,,,,,,,,,,,6,Explosives/Bombs/Dynamite,16,Unknown Explosive Type,,,,,,,,,,,,,Explosive,0,,,35,,,1,,,,,0,,,,,,,0,,,,,,,,,,,,,PGIS,0,1,0,1,
1996,12,3,,0,,69,France,8,Western Europe,Ile-de-France,Paris,48.856614,2.352222,1,0,,,1,1,1,0,,,0,1,0,3,Bombing/Explosion,,,,,19,Transportation,100,Train/Train Tracks/Trolley,,Commuter Train,69,France,,,,,,,,,,,,,,,,,Armed Islamic Group (GIA),,,,,,,1,,,0,,,,,,,,,,,,,6,Explosives/Bombs/Dynamite,16,Unknown Explosive Type,,,,,,,,,,,,,Bomb,3,,,91,,,1,,,,,0,,,,,,,0,,,,,,,,,,,,,PGIS,1,1,0,1,
1997,2,10,,0,,603,United Kingdom,8,Western Europe,Northern Ireland,Newtownabbey,54.684823,-5.965868,1,0,,,1,1,1,-9,,,0,1,0,8,Unarmed Assault,,,,,14,Private Citizens & Property,68,Named Civilian,,David Templeton,233,Northern Ireland,,,,,,,,,,,,,,,,,Protestant extremists,,,,,,,0,,,0,,,,,,,,,,,,,9,Melee,22,"Hands, Feet, Fists",,,,,,,,,,,,,Beaten to death,1,,,,,,0,,,,,0,,,,,,,0,,,,,,,,,,,,,CAIN,-9,-9,1,1,
1997,4,28,,0,,603,United Kingdom,8,Western Europe,Northern Ireland,Portadown,54.42071,-6.443767,1,0,,,1,1,1,-9,,,0,1,0,8,Unarmed Assault,,,,,14,Private Citizens & Property,69,Religion Identified,,"Robert Hamill, 25, Catholic",233,Northern Ireland,,,,,,,,,,,,,,,,,Protestant extremists,,,,,,,0,,,0,,,,,,,,,,,,,9,Melee,22,"Hands, Feet, Fists",,,,,,,,,,,,,Beaten to death,1,,,,,,0,,,,,0,,,,,,,0,,,,,,,,,,,,,CAIN,-9,-9,1,1,
1997,7,21,,0,,75,Germany,8,Western Europe,North Rhine-Westphalia,Essen,51.457935,7.014828,1,0,,,1,1,1,0,,,0,1,0,7,Facility/Infrastructure Attack,,,,,14,Private Citizens & Property,68,Named Civilian,,Asylum-seekers' home,,,,,,,,,,,,,,,,,,,Arsonists,,,,,,,0,,,0,,,,,,,,,,,,,8,Incendiary,,,,,,,,,,,,,,,,0,,,21,,,1,,,,,0,,,,,,,0,,,,,,,,,,,,,PGIS,-9,-9,-9,-9,
1998,8,15,,0,,603,United Kingdom,8,Western Europe,Northern Ireland,Omagh,54.600305,-7.298402,1,0,Tyrone (County),"08/15/1998: A car bomb exploded in in the center of Omagh, Northern Ireland, killing 29 people and wounding 220 others. The Real Irish Republican Army (RIRA) claimed responsibility for the attack.",1,1,1,0,,,0,1,0,3,Bombing/Explosion,,,,,14,Private Citizens & Property,67,Unnamed Civilian/Unspecified,Civilians,"Civilians in Omagh, Northern Ireland",233,Northern Ireland,,,,,,,,,,,,,,,,,Real Irish Republican Army (RIRA),,,,,,Unknown,0,,,0,,0,1,2,Call (post-incident),,,,,,,-9,6,Explosives/Bombs/Dynamite,15,Vehicle,,,,,,,,,,,,,,29,0,0,220,0,0,1,3,Minor (likely < $1 million),,,0,,,,,,,,,,,,,,,,This attack was widely regarded as the worst act of violence yet in the long-running conflict between the British-controlled province's Roman Catholic and Protestant residents. Irish media outlets reportedly received at least two warning calls about 40 minutes before the blast.,"“Northern Ireland Bombing Kills 29 People; Attack Called Conflicts Worst, Other Developments,” Facts on File World News Digest, August 20, 1998.","Deric Henderson, Melissa Kite and Ruth O’Reilly, “Ulster: Adams Condemns Bombing Without any Equivocation,” London Press Association, August 15, 1998.","Shawn Pogatchnik, “Car bomb kills 25, injures over 200 in Northern Ireland,” Associated Press, August 15, 1998.",CETIS,0,0,1,1,
1999,4,17,,0,,603,United Kingdom,8,Western Europe,England,Brixton,51.460938,-0.116019,1,0,Lambeth (London Borough),"04/17/1999: An explosive device filled with nails exploded in Brixton, south London, United Kingdom, injuring 39 people. Combat 18 claimed credit for the attack, followed by three other racist groups who each also claimed credit. The authorities would not give the names of the other groups. It was believed that the attack was racially motivated.",1,1,1,1,2,Other Crime Type,0,1,0,3,Bombing/Explosion,,,,,14,Private Citizens & Property,67,Unnamed Civilian/Unspecified,Civilians,Civilians in the Brixton area,216,Great Britain,,,,,,,,,,,,,,,,,Combat 18,,Unknown,,Unknown,,It was believed that the attack was racially motivated.,0,0,0,0,,0,1,2,Call (post-incident),1,10,Unknown,1,10,Unknown,1,6,Explosives/Bombs/Dynamite,17,Other Explosive Type,,,,,,,,,,,,,A bomb with many nails taped to it was used in the attack.,0,0,0,39,0,0,-9,,,,,0,,,,,,,,,,,,,,,,,"Robert Barr, “Dozens Hurt in Blast in London,” Associated Press Online, April 17, 1999.","Paul Peachey, “Right Wing Terrorists Claim London Bomb,” Press Association, April 19, 1999.","Jonathan Brown, “UK: Racist Groups Claim Responsibility for Brixton Bomb,” Press Association, April 23, 1999.",CETIS,1,0,1,1,
1999,10,23,,0,,603,United Kingdom,8,Western Europe,England,Brixton,51.460938,-0.116019,1,0,Lambeth (London Borough),"10/23/1999: At 5:25pm local time, a nail bomb exploded at a crowded street market near Brixton Road and Electric Ave in south London, United Kingdom. A merchant was handed a bag that was thought to have been forgotten during shopping. The salesman opened it and upon seeing the contents, moved the bomb several yards away before it exploded, blowing him across the street and injuring at least 48 people. The perpetrators of this incident were unknown.",1,1,1,0,,,0,1,0,3,Bombing/Explosion,,,,,14,Private Citizens & Property,74,Marketplace/Plaza/Square,Civilians,Shoppers at a crowded market on Electric Avenue in London,216,Great Britain,,,,,,,,,,,,,,,,,Unknown,,,,,,Unknown,0,,,0,,0,0,,,,,,,,,,6,Explosives/Bombs/Dynamite,17,Other Explosive Type,,,,,,,,,,,,,The device was packed with nails.,0,0,0,48,0,0,1,3,Minor (likely < $1 million),,,0,,,,,,,,,,,,,,,,,"""Nail Bomb Injures 48 in London,” Deseret News, October 24, 1999.",,,CETIS,-9,-9,1,1,
2000,1,21,,0,,185,Spain,8,Western Europe,Madrid,Madrid,40.416691,-3.700345,1,0,,01/21/2000: Euskadi ta Askatasuna (ETA) detonated a car bomb in Madrid killing one army officer and injuring two teenage girls.,1,1,1,0,,,0,1,0,3,Bombing/Explosion,,,,,14,Private Citizens & Property,67,Unnamed Civilian/Unspecified,Civilians,Residents of Madrid,185,Spain,,,,,,,,,,,,,,,,,Basque Fatherland and Freedom (ETA),,,,,,Unknown,0,,,0,,0,0,,,,,,,,,,6,Explosives/Bombs/Dynamite,15,Vehicle,,,,,,,,,,,,,A car bomb was used,3,0,0,,0,0,-9,,,,,0,,,,,,,,,,,,,,,,,"“One Dead, Several Injured in Car Bomb Attack in Madrid,” EFE, January 21, 2000.","“Pope Condemns Madrid Terrorist Car Bomb Attacks,” ANSA (Internet version), January 23, 2000.","“Italy's Dini Deplores ETA Car Bomb in Madrid,” (Internet) Italian Ministry of Foreign Affairs WWW-Text, January 22, 2000.",CETIS,0,1,0,1,
2001,5,11,,0,,185,Spain,8,Western Europe,Madrid,Madrid,40.416691,-3.700345,1,0,,05/11/2001: A car bomb exploded in the Salamanca district of Madrid after a caller identifying himself as an Euskadi Ta Askatasuna (ETA) member warned of the bombing. At least seven people were injured in the attack.,1,1,1,0,,,0,1,0,3,Bombing/Explosion,,,,,14,Private Citizens & Property,71,Race/Ethnicity Identified,Civilians,Spanish civilians,185,Spain,,,,,,,,,,,,,,,,,Basque Fatherland and Freedom (ETA),,,,,,Unknown,0,,,0,,0,1,3,Call (pre-incident),,,,,,,-9,6,Explosives/Bombs/Dynamite,15,Vehicle,,,,,,,,,,,,,,0,0,0,,0,0,1,3,Minor (likely < $1 million),,,0,,,,,,,,,,,,,,,,One report stated that fourteen people were injured.  Another report stated eight people were injured.  And a third report stated seven people were injured.,"""Spain: 14 wounded in car bomb attack in Madrid,” Madrid EFE, May 12, 2001.","""Eight Injured by Madrid Car Bomb,” Madrid RNE Radio 1, May 11, 2001.","""Seven injured in Madrid bombing ahead of Basque elections,” Agence France Presse, May 12, 2001.",CETIS,0,1,0,1,
2003,1,16,,0,,69,France,8,Western Europe,Corsica,Unknown,41.918891,8.737554,4,0,This attack occurred in an unspecified location in the Corse-du-Sud.,"01/16/2003: An unoccupied villa in Corsica, France was the target of a bomb in a night where three separate bombings were reported. No one was injured.",1,1,1,0,,,1,1,0,3,Bombing/Explosion,,,,,14,Private Citizens & Property,76,House/Apartment/Residence,,Unoccupied Villa,69,France,,,,,,,,,,,,,,,,,Unknown,,,,,,Unknown,0,,,0,,0,0,,,,,,,,,,6,Explosives/Bombs/Dynamite,16,Unknown Explosive Type,,,,,,,,,,,,,,0,0,,,0,,1,3,Minor (likely < $1 million),,,0,,,,,,,,,,,,,,,,,"“Two buildings damaged in bomb attacks in French island of Corsica, LCI Television, January 17, 2003.",,,CETIS,-9,-9,0,-9,"200301160009, 200301160008, 200301160010"
2003,1,16,,0,,69,France,8,Western Europe,Corsica,Bastia,42.697595,9.450272,1,0,,"01/16/2003: The Vieux Port district in Bastia, Corsica was the target of a bomb in a night where three separate bombings were reported. The exact target remains unclear. No one was injured.",1,1,1,0,,,1,1,0,3,Bombing/Explosion,,,,,14,Private Citizens & Property,75,Village/City/Town/Suburb,City of Bastia,Vieux Port District of Bastia,69,France,,,,,,,,,,,,,,,,,Unknown,,,,,,Unknown,0,,,0,,0,0,,,,,,,,,,6,Explosives/Bombs/Dynamite,16,Unknown Explosive Type,,,,,,,,,,,,,,0,0,,,0,,1,3,Minor (likely < $1 million),,,0,,,,,,,,,,,,,,,,,"“Two buildings damaged in bomb attacks in French island of Corsica, LCI Television, January 17, 2003.",,,CETIS,-9,-9,0,-9,"200301160010, 200301160008, 200301160009"
2004,3,11,,0,,185,Spain,8,Western Europe,Madrid,Madrid,40.416691,-3.700345,1,0,,"03/11/2004: At 7:37 a.m. local time three bombs exploded inside the third, fourth, and sixth cars of a train inside Atocha Station, killing at least 34 people and wounding many more.  The attack was a part of a series of ten bombs that exploded on trains on Madrid's commuter line during the morning rush hour, killing 191 people and wounding more than 1800 others. Police initially accused the Basque separatist group Euskadi ta Askatasuna (ETA) of the attack, which occurred three days before Spain's general election, but Islamic extremists were soon found to be the perpetrators. Abu Hafs al-Masri Brigades, a group said to be associated with Al-Qa ida, claimed responsibility for the attack, stating that it was retribution for Spain's cooperation with the United States in the Iraq War. Islamic extremists influenced by Al-Qa ida were held responsible for the attacks and it is unknown if the Abu Hafs al-Masri Brigades claim of responsibility is valid. Twenty nine suspects, mostly Moroccans, have since been charged for the attacks, with the trial commencing in February 2007.",1,1,1,0,,,1,1,0,3,Bombing/Explosion,,,,,19,Transportation,100,Train/Train Tracks/Trolley,Civilians,"Indiscriminate civilians on commuter trains in Madrid, Spain.",185,Spain,19,Transportation,100,Train/Train Tracks/Trolley,Commuter Train,"Commuter trains in Madrid, Spain.",185,Spain,,,,,,,,,Abu Hafs al-Masri Brigades,,,,,,Abu Hafs al-Masri Brigades said that the attack was retribution for Spain's cooperation with the United States in the Iraq War.,1,,,0,,29,1,4,E-mail,,,,,,,-9,6,Explosives/Bombs/Dynamite,28,Dynamite/TNT,,,,,,,,,,,,,Twenty two pounds of explosives were located in backpacks and detonated by cell phones.,37,,0,450,,0,1,2,Major (likely > $1 million but < $1 billion),6600000,The Associated Press reported that the attacks cumulatively caused $26.4 million worth of property damage and compensation owed to victims' families.,0,,,,,,,,,,,,,,,,"This was one of six related attacks (cf. 20040311001; 20040311003-07). The injury and property damage figures were reported cumulatively for the four blasts, so they have been divided equally across the cases in order to preserve the statistical accuracy of the database. After the attacks, police discovered a stolen van containing seven detonators and an Arabic language tape near the Atocha station. London-based newspaper Al-Qods al-Arabi received an email claiming responsibility from Abu Hafs al-Masri Brigades on the day of the attack and a videotape found at a mosque in Madrid two days later also claimed responsibility by that group. On April 3, 2004, seven key suspects committed suicide during a police raid on their Madrid apartment; among of whom was Jamal Ahmidan, a Moroccan believed to have been the central figure in the financing, planning and execution of the attacks. According to the Associated Press, it cost the perpetrators $120,000 to carry out the attacks, ranging from the cost of buying explosives to renting safe-houses. Of the 29 charged, three men were charged with murder: Jamal Zougam, a Moroccan merchant who allegedly supplied the cell phones used as detonators; Emilio Suarez Trashorras, a Spaniard accused of supplying the dynamite; and Abdelmajid Bouchar, a Moroccan. Rabei Osman, an Egyptian who claimed that the attacks were his idea, is among three other men accused of conspiracy to commit murder.","""Timeline of Events in Madrid Train Bombings,"" Agence France Presse, February 14, 2007.","""Madrid Attacks Timeline,"" BBC Online, March 12, 2004.","Daniel Woolls, “Judge Indicts 29 People over Madrid Terror Bombings that Killed 191 People,” Associated Press, April 12, 2006.",CETIS,0,1,0,1,"200403110001, 200403110003, 200403110004, 200403110005, 200403110006, 200403110007"
2004,3,11,,0,,185,Spain,8,Western Europe,Madrid,Madrid,40.416691,-3.700345,1,0,,"03/11/2004: At 7:41 am local time, two bombs exploded in the fourth and fifth carriages of a train at El Pozo station in Madrid, Spain. The attack was a part of a series of ten bombs that exploded on trains on Madrid's commuter line during the morning rush hour, killing 191 people and wounding more than 1800 others. The attack, carried out by Islamic extremists who detonated backpack bombs with cell phones, was the deadliest of the four train attacks, killing at least 70 people and wounding many more. Police initially accused the Basque separatist group Euskadi ta Askatasuna (ETA) of the attack, which occurred three days before Spain's general election, but Islamic extremists were soon found to be the perpetrators. Abu Hafs al-Masri Brigades, a group said to be associated with Al-Qa ida, claimed responsibility for the attack, stating that it was retribution for Spain's cooperation with the United States in the Iraq War.  Islamic extremists influenced by Al-Qa ida were held responsible for the attacks and it is unknown if the Abu Hafs al-Masri Brigades claim of responsibility is valid. Twenty nine suspects, mostly Moroccans, have since been charged for the attacks, with the trial commencing in February 2007.",1,1,1,0,,,1,1,0,3,Bombing/Explosion,,,,,19,Transportation,100,Train/Train Tracks/Trolley,Civilians,"Indiscriminate civilians on commuter trains in Madrid, Spain.",185,Spain,19,Transportation,100,Train/Train Tracks/Trolley,Spanish Commuter Rail System,"Commuter trains in Madrid, Spain",185,Spain,,,,,,,,,Abu Hafs al-Masri Brigades,,,,,,Abu Hafs al-Masri Brigades said that the attack was retribution for Spain's cooperation with the United States in the Iraq War.,1,,,0,,29,1,4,E-mail,,,,,,,-9,6,Explosives/Bombs/Dynamite,28,Dynamite/TNT,,,,,,,,,,,,,Twenty two pounds of explosives were located in backpacks and detonated by cell phones.,73,,0,450,,0,1,2,Major (likely > $1 million but < $1 billion),6600000,The Associated Press reported that the attacks cumulatively caused $26.4 million worth of property damage and compensation owed to victims' families.,0,,,,,,,,,,,,,,,,"This was one of six related attacks (cf. 20040311001; 20040311003-07). The injury and property damage figures were reported cumulatively for the four blasts, so they have been divided equally across the cases in order to preserve the statistical accuracy of the database. After the attacks, police discovered a stolen van containing seven detonators and an Arabic language tape near the Atocha station. London-based newspaper Al-Qods al-Arabi received an email claiming responsibility from Abu Hafs al-Masri Brigades on the day of the attack and a videotape found at a mosque in Madrid two days later also claimed responsibility by that group. On April 3, 2004, seven key suspects committed suicide during a police raid on their Madrid apartment; among of whom was Jamal Ahmidan, a Moroccan believed to have been the central figure in the financing, planning and execution of the attacks. According to the Associated Press, it cost the perpetrators $120,000 to carry out the attacks, ranging from the cost of buying explosives to renting safe-houses. Of the 29 charged, three men were charged with murder: Jamal Zougam, a Moroccan merchant who allegedly supplied the cell phones used as detonators; Emilio Suarez Trashorras, a Spaniard accused of supplying the dynamite; and Abdelmajid Bouchar, a Moroccan. Rabei Osman, an Egyptian who claimed that the attacks were his idea, is among three other men accused of conspiracy to commit murder.","""Timeline of Events in Madrid Train Bombings,"" Agence France Presse, February 14, 2007.","""Madrid Attacks Timeline,"" BBC Online, March 12, 2004.","Daniel Woolls, “Judge Indicts 29 People over Madrid Terror Bombings that Killed 191 People,” Associated Press, April 12, 2006.",CETIS,0,1,0,1,"200403110003, 200403110001, 200403110004, 200403110005, 200403110006, 200403110007"
2004,3,11,,0,,185,Spain,8,Western Europe,Madrid,Madrid,40.416691,-3.700345,1,0,,"03/11/2004: At 7:42 am local time, a bomb exploded on the fourth carriage of a train passing through the Santa Eugenia station in Madrid, Spain. At least 17 people were killed and many more were injured. The bombs were placed in backpacks by Islamic extremists and detonated by cell phones. The attack was a part of a series of ten bombs that exploded on trains on Madrid's commuter line during the morning rush hour, killing 191 people and wounding more than 1800 others. Police initially accused the Basque separatist group Euskadi ta Askatasuna (ETA) of the attack, which occurred three days before Spain's general election, but Islamic extremists were soon found to be the perpetrators. Abu Hafs al-Masri Brigades, a group said to be associated with Al-Qa ida, claimed responsibility for the attack, stating that it was retribution for Spain's cooperation with the United States in the Iraq War.  Islamic extremists influenced by Al-Qa ida were held responsible for the attacks and it is unknown if the Abu Hafs al-Masri Brigades claim of responsibility is valid. Twenty nine suspects, mostly Moroccans, have since been charged for the attacks, with the trial commencing in February 2007.",1,1,1,0,,,1,1,0,3,Bombing/Explosion,,,,,19,Transportation,100,Train/Train Tracks/Trolley,Civilians,"Indiscriminate civilians on commuter trains in Madrid, Spain.",185,Spain,19,Transportation,100,Train/Train Tracks/Trolley,Spanish Commuter Rail System,"Commuter trains in Madrid, Spain",185,Spain,,,,,,,,,Abu Hafs al-Masri Brigades,,,,,,Abu Hafs al-Masri Brigades said that the attack was retribution for Spain's cooperation with the United States in the Iraq War.,1,,,0,,29,1,4,E-mail,,,,,,,-9,6,Explosives/Bombs/Dynamite,28,Dynamite/TNT,,,,,,,,,,,,,Twenty two pounds of explosives were located in backpacks and detonated by cell phones.,19,,0,450,,0,1,2,Major (likely > $1 million but < $1 billion),6600000,The Associated Press reported that the attacks cumulatively caused $26.4 million worth of property damage and compensation owed to victims' families.,0,,,,,,,,,,,,,,,,"This was one of six related attacks (cf. 20040311001; 20040311003-07). The injury and property damage figures were reported cumulatively for the four blasts, so they have been divided equally across the cases in order to preserve the statistical accuracy of the database. After the attacks, police discovered a stolen van containing seven detonators and an Arabic language tape near the Atocha station. London-based newspaper Al-Qods al-Arabi received an email claiming responsibility from Abu Hafs al-Masri Brigades on the day of the attack and a videotape found at a mosque in Madrid two days later also claimed responsibility by that group. On April 3, 2004, seven key suspects committed suicide during a police raid on their Madrid apartment; among of whom was Jamal Ahmidan, a Moroccan believed to have been the central figure in the financing, planning and execution of the attacks. According to the Associated Press, it cost the perpetrators $120,000 to carry out the attacks, ranging from the cost of buying explosives to renting safe-houses. Of the 29 charged, three men were charged with murder: Jamal Zougam, a Moroccan merchant who allegedly supplied the cell phones used as detonators; Emilio Suarez Trashorras, a Spaniard accused of supplying the dynamite; and Abdelmajid Bouchar, a Moroccan. Rabei Osman, an Egyptian who claimed that the attacks were his idea, is among three other men accused of conspiracy to commit murder.","""Timeline of Events in Madrid Train Bombings,"" Agence France Presse, February 14, 2007.","""Madrid Attacks Timeline,"" BBC Online, March 12, 2004.","Daniel Woolls, “Judge Indicts 29 People over Madrid Terror Bombings that Killed 191 People,” Associated Press, April 12, 2006.",CETIS,0,1,0,1,"200403110004, 200403110001, 200403110003, 200403110005, 200403110006, 200403110007"
2004,3,11,,0,,185,Spain,8,Western Europe,Madrid,Madrid,40.416691,-3.700345,1,0,,"03/11/2004: At 7:39 am local time, four bombs exploded in a train about 500 meters away from the Atocha train station in Madrid, Spain, occurring almost simultaneously as another attack at the train station. The bombs, placed by Islamic extremists in backpacks and detonated by cell phones, exploded in the first, fourth and sixth carriages of the train. At least 59 people were killed and many more were injured. The attack was a part of a series of ten bombs that exploded on trains on Madrid's commuter line during the morning rush hour, killing 191 people and wounding more than 1800 others. Police initially accused the Basque separatist group Euskadi ta Askatasuna (ETA) of the attack, which occurred three days before Spain's general election, but Islamic extremists were soon found to be the perpetrators. Abu Hafs al-Masri Brigades, a group said to be associated with Al-Qa ida, claimed responsibility for the attack, stating that it was retribution for Spain's cooperation with the United States in the Iraq War.  Islamic extremists influenced by Al-Qa ida were held responsible for the attacks and it is unknown if the Abu Hafs al-Masri Brigades claim of responsibility is valid. Twenty nine suspects, mostly Moroccans, have since been charged for the attacks, with the trial commencing in February 2007.",1,1,1,0,,,1,1,0,3,Bombing/Explosion,,,,,19,Transportation,100,Train/Train Tracks/Trolley,Civilians,"Indiscriminate civilians on commuter trains in Madrid, Spain.",185,Spain,19,Transportation,100,Train/Train Tracks/Trolley,Spanish Commuter Rail System,"Commuter trains in Madrid, Spain",185,Spain,,,,,,,,,Abu Hafs al-Masri Brigades,,,,,,Abu Hafs al-Masri Brigades said that the attack was retribution for Spain's cooperation with the United States in the Iraq War.,1,,,0,,29,1,4,E-mail,,,,,,,-9,6,Explosives/Bombs/Dynamite,12,Remote Trigger,,,,,,,,,,,,,Twenty two pounds of explosives were located in backpacks and detonated by cell phones.,62,,0,450,,0,1,2,Major (likely > $1 million but < $1 billion),6600000,The Associated Press reported that the attacks cumulatively caused $26.4 million worth of property damage and compensation owed to victims' families.,0,,,,,,,,,,,,,,,,"This was one of six related attacks (cf. 20040311001; 20040311003-07). The injury and property damage figures were reported cumulatively for the four blasts, so they have been divided equally across the cases in order to preserve the statistical accuracy of the database. After the attacks, police discovered a stolen van containing seven detonators and an Arabic language tape near the Atocha station. London-based newspaper Al-Qods al-Arabi received an email claiming responsibility from Abu Hafs al-Masri Brigades on the day of the attack and a videotape found at a mosque in Madrid two days later also claimed responsibility by that group. On April 3, 2004, seven key suspects committed suicide during a police raid on their Madrid apartment; among of whom was Jamal Ahmidan, a Moroccan believed to have been the central figure in the financing, planning and execution of the attacks. According to the Associated Press, it cost the perpetrators $120,000 to carry out the attacks, ranging from the cost of buying explosives to renting safe-houses. Of the 29 charged, three men were charged with murder: Jamal Zougam, a Moroccan merchant who allegedly supplied the cell phones used as detonators; Emilio Suarez Trashorras, a Spaniard accused of supplying the dynamite; and Abdelmajid Bouchar, a Moroccan. Rabei Osman, an Egyptian who claimed that the attacks were his idea, is among three other men accused of conspiracy to commit murder.","""Timeline of Events in Madrid Train Bombings,"" Agence France Presse, February 14, 2007.","""Madrid Attacks Timeline,"" BBC Online, March 12, 2004.","Daniel Woolls, “Judge Indicts 29 People over Madrid Terror Bombings that Killed 191 People,” Associated Press, April 12, 2006.",CETIS,0,1,0,1,"200403110007, 200403110001, 200403110003, 200403110004, 200403110005, 200403110006"
2004,6,9,,0,,75,Germany,8,Western Europe,North Rhine-Westphalia,Mulheim,50.96177,7.004022,1,0,Mullheim suburb,"06/09/2004: A nailed-filled explosive device detonated in Mullheim, a predominantly Turkish suburb of Cologne city, North Rhine-Westphalia state, Germany.  Between 17 and 22 people were injured by the blast.  The Nationalist Socialist Underground claimed responsibility on a digital video disc (DVD) later found in a member's house.",1,1,1,0,,,0,1,0,3,Bombing/Explosion,,,,,14,Private Citizens & Property,,,Turkish Citizens,civilians,209,Turkey,,,,,,,,,,,,,,,,,National Socialist Underground,,,,,,,0,,,0,-99,0,1,6,Video,,,,,,,0,6,Explosives/Bombs/Dynamite,16,Unknown Explosive Type,,,,,,,,,,,,,An explosive device filled with nails.,0,0,0,22,0,0,-9,,,,,0,,,,,,,,,,,,,,,,,http://www.welt.de/politik/deutschland/article115909523/Zschaepe-Anwaelte-koennen-Richter-Goetzl-nicht-stoppen.html,http://www.telegraph.co.uk/news/worldnews/europe/germany/8889659/German-police-widen-neo-Nazi-investigation.html,http://www.nytimes.com/2004/06/10/world/nail-bomb-in-a-turkish-area-in-cologne-hurts-17.html,UMD Miscellaneous,0,1,1,1,
2005,5,25,,0,,185,Spain,8,Western Europe,Madrid,Madrid,40.416691,-3.700345,1,0,,"05/25/2005: Two suspected members of Euskadi ta Askatasuna (ETA) detonated a car bomb containing 18-20 kilograms of explosive material in Madrid, Spain. 34 people were injured when the bomb exploded inside a stolen van that had been parked along a busy street. No group claimed responsibility for the attack.",1,1,1,0,,,0,1,0,3,Bombing/Explosion,,,,,14,Private Citizens & Property,68,Named Civilian,Civilan(s),Madrid Civilians,185,Spain,,,,,,,,,,,,,,,,,Basque Fatherland and Freedom (ETA),,,,,,Unknown,0,,,0,2,0,0,,,,,,,,,,6,Explosives/Bombs/Dynamite,15,Vehicle,,,,,,,,,,,,,18-20 kg of explosive materials were used to blow up a van.,0,0,0,34,0,0,1,4,Unknown,-99,,0,,,,,,,,,,,,,,,,Authorities identified the perpetrators through security cameras from a building near the explosion.,"“Bomb Contained up to 20 Kilos of Explosives – Spanish Minister,” EFE, May 25, 2005.","“Thirty – Four Injured in Spanish Bomb Attack,” RNE Radio 1, May 25, 2005.","“Spanish Local Police Spoke to ETA Member Involved in Bomb Attack,” La Razon, May 28, 2005.",CETIS,0,1,0,1,
2005,7,7,,0,,603,United Kingdom,8,Western Europe,England,London,51.500152,-0.126236,1,0,The incident occurred at a Liverpool Street Station.,"07/07/2005: One of four bombers detonated himself inside the number 204 train as it traveled between Liverpool and Aldgate Stations in London’s underground subway. Seven people, not including the suicide bomber, were killed and hundreds were injured in the attack. Abu Hafs al-Masri Brigades and the Secret Organization of al-Qaeda in Europe both claimed responsibility, although it is generally believed that the claim by Abu Hafs al-Masri Brigades were not credible.",1,1,1,0,,,1,1,1,3,Bombing/Explosion,,,,,19,Transportation,102,Subway,London Underground,Number 204 Train,216,Great Britain,,,,,,,,,,,,,,,,,Secret Organization of al-Qaida in Europe,,,,,,Unknown,0,,,0,1,0,1,7,"Posted to website, blog, etc.",,,,,,,-9,6,Explosives/Bombs/Dynamite,13,Suicide (carried bodily by human being),,,,,,,,,,,,,"The explosive materials were homemade peroxide-based devices packed in rucksacks. It is estimated that less than 10 pounds of this explosive was used in each attack. While the manufacturing of this explosive is a dangerous process, it does not require great skill.",8,0,1,171,0,0,1,2,Major (likely > $1 million but < $1 billion),-99,,0,,,,,,,,,,,,,,,,"The perpetrator, Shehzad Tanweer, traveled to Pakistan to attend a course in Islamic studies in 2004, where he met members of the bombing team. The materials used for this attack were relatively inexpensive, leading many to doubt that foreign funding was used. The claim of responsibility by the Secret Organization of al Qaeda in Europe was posted on the ""Qala"" website hours after the attack. MI5 has reportedly declared the attack to be largely motivated by the conflict in Iraq and other perceived injustices against Muslims by the West. Location-specific casualty information source: BBC (http://news.bbc.co.uk/2/shared/spl/hi/uk/05/london_blasts/what_happened/html/).","Bruce Wilson and Jane Wardell, “Bomb Attacks on London Underground and Buses,” The Advertiser, July 8, 2005.","Peter Wilson, “Terrorists hit London – Hundreds injured in rush-hour attacks,” The Australian, July 8, 2005.","Alan Cowell, Raymond Bonner, ""Changes in investigation of bombing attacks in London leave major questions unanswered,"" The New York Times, August 15, 2008.",CETIS,1,1,1,1,"200507070001, 200507070002, 200507070003, 200507070004"
2005,7,7,,0,,603,United Kingdom,8,Western Europe,England,London,51.529888,-0.125127,1,0,Kings Cross Subway Station,"07/07/2005: One of four suicide bombers detonated himself inside the number 216 train as it traveled between Russell Square and Kings Cross Stations in London’s underground subway. Twenty-six people, not including that suicide bomber, were killed and scores were injured in the attack. Abu Hafs al-Masri Brigades and the Secret Organization of al-Qaeda in Europe both claimed responsibility, although it is generally believed that the claim by Abu Hafs al-Masri Brigades were not credible.",1,1,1,0,,,1,1,1,3,Bombing/Explosion,,,,,19,Transportation,102,Subway,London Underground,Number 216 Train,216,Great Britain,,,,,,,,,,,,,,,,,Secret Organization of al-Qaida in Europe,,,,,,Unknown,0,,,0,1,0,1,7,"Posted to website, blog, etc.",,,,,,,-9,6,Explosives/Bombs/Dynamite,13,Suicide (carried bodily by human being),,,,,,,,,,,,,"The explosive materials were homemade peroxide-based devices packed in rucksacks. It is estimated that less than 10 pounds of this explosive was used in each attack. While the manufacturing of this explosive is a dangerous process, it does not require great skill.",27,0,1,340,0,0,1,2,Major (likely > $1 million but < $1 billion),-99,,0,,,,,,,,,,,,,,,,"The perpetrator, Germaine Lindsay, is suspected to have traveled to Pakistan and Afghanistan, where he met other members of the bombing team. The materials used for this attack were relatively inexpensive, leading many to doubt that foreign funding was used. The claim of responsibility by the Secret Organization of al Qaeda in Europe was posted on the ""Qala"" website hours after the attack. MI5 has reportedly declared the attack to be largely motivated by the conflict in Iraq and other perceived injustices against Muslims by the West. Location-specific casualty information source: BBC (http://news.bbc.co.uk/2/shared/spl/hi/uk/05/london_blasts/what_happened/html/).","Jane Wardell and Lukas I. Alpert, “Qaeda Blast Kill at Least 37 – Bus and 3 Subways are Bombed, US Boost Train Security Alert,” The New York Post, July 8, 2005.","Peter Wilson, “Terrorists hit London – Hundreds injured in rush-hour attacks,” The Australian, July 8, 2005.","Alan Cowell, Raymond Bonner, ""Changes in investigation of bombing attacks in London leave major questions unanswered,"" The New York Times, August 15, 2008.",CETIS,1,1,1,1,"200507070002, 200507070001, 200507070003, 200507070004"
2005,7,7,,0,,603,United Kingdom,8,Western Europe,England,London,51.51986,-0.16781,1,0,Edgware Road Subway Station,"07/07/2005: One of four suicide bombers detonated himself inside the number 311 train at Edgware Road Station in London’s underground subway. Six people, not including the suicide bomber, were killed and scores were injured in the attack. Abu Hafs al-Masri Brigades and the Secret Organization of al-Qaeda in Europe both claimed responsibility, although it is generally believed that the claim by Abu Hafs al-Masri Brigades were not credible.",1,1,1,0,,,1,1,1,3,Bombing/Explosion,,,,,19,Transportation,102,Subway,London Underground,Number 331 Train,216,Great Britain,,,,,,,,,,,,,,,,,Secret Organization of al-Qaida in Europe,,,,,,Unknown,0,,,0,1,0,1,7,"Posted to website, blog, etc.",,,,,,,-9,6,Explosives/Bombs/Dynamite,13,Suicide (carried bodily by human being),,,,,,,,,,,,,"The explosive materials were homemade peroxide-based devices packed in rucksacks. It is estimated that less than 10 pounds of this explosive was used in each attack. While the manufacturing of this explosive is a dangerous process, it does not require great skill.",7,0,1,163,0,0,1,2,Major (likely > $1 million but < $1 billion),-99,,0,,,,,,,,,,,,,,,,"The perpetrator, Mohammad Sidique Khan, is suspected to have traveled to Pakistan and Afghanistan and had contact with various terror groups. The materials used for this attack were relatively inexpensive, leading many to doubt that foreign funding was used. The claim of responsibility by the Secret Organization of al Qaeda in Europe was posted on the ""Qala"" website hours after the attack. MI5 has reportedly declared the attack to be largely motivated by the conflict in Iraq and other perceived injustices against Muslims by the West. Location-specific casualty information source: BBC (http://news.bbc.co.uk/2/shared/spl/hi/uk/05/london_blasts/what_happened/html/).","Jane Wardell and Lukas I. Alpert, “Qaeda Blast Kill at Least 37 – Bus and 3 Subways are Bombed, US Boost Train Security Alert,” The New York Post, July 8, 2005.","Peter Wilson, “Terrorists hit London – Hundreds injured in rush-hour attacks,” The Australian, July 8, 2005.","Alan Cowell, Raymond Bonner, ""Changes in investigation of bombing attacks in London leave major questions unanswered,"" The New York Times, August 15, 2008.",CETIS,1,1,1,1,"200507070003, 200507070001, 200507070002, 200507070004"
2005,7,7,,0,,603,United Kingdom,8,Western Europe,England,London,51.525483,-0.128843,1,0,Tavistock Square,"07/07/2005: One of four suicide bombers detonated himself on the No. 30 Dennis Trident 2 double-decker bus operating in London’s Tavistock Square. Thirteen people, not including the suicide bomber, were killed and hundreds were injured in the attack. Abu Hafs al-Masri Brigades and the Secret Organization of al-Qaeda in Europe both claimed responsibility, although it is generally believed that the claim by Abu Hafs al-Masri Brigades were not credible.",1,1,1,0,,,1,1,1,3,Bombing/Explosion,,,,,19,Transportation,99,Bus (excluding tourists),London Underground,Number 30 Bus,216,Great Britain,,,,,,,,,,,,,,,,,Secret Organization of al-Qaida in Europe,,,,,,Unknown,0,,,0,1,0,1,7,"Posted to website, blog, etc.",,,,,,,-9,6,Explosives/Bombs/Dynamite,13,Suicide (carried bodily by human being),,,,,,,,,,,,,"The explosive materials were homemade peroxide-based devices packed in rucksacks. It is estimated that less than 10 pounds of this explosive was used in each attack. While the manufacturing of this explosive is a dangerous process, it does not require great skill.",14,0,1,110,0,0,1,2,Major (likely > $1 million but < $1 billion),-99,,0,,,,,,,,,,,,,,,,"The perpetrator, Hasib Hussain, traveled to Pakistan and Saudi Arabia in 2003. He met Khan and Tanweer shortly thereafter, and all three attended the Stratford Street Mosque in Beeston. The materials used for this attack were relatively inexpensive, leading many to doubt that foreign funding was used. Hussain reportedly attempted to contact the other bombers by mobile telephone before the first three blasts, and purchased batteries in a store before detonating his bomb in the bus. The claim of responsibility by the Secret Organization of al Qaeda in Europe was posted on the ""Qala"" website hours after the attack. MI5 has reportedly declared the attack to be largely motivated by the conflict in Iraq and other perceived injustices against Muslims by the West. Location-specific casualty information source: BBC (http://news.bbc.co.uk/2/shared/spl/hi/uk/05/london_blasts/what_happened/html/).","Jane Wardell and Lukas I. Alpert, “Qaeda Blast Kill at Least 37 – Bus and 3 Subways are Bombed, US Boost Train Security Alert,” The New York Post, July 8, 2005.","Peter Wilson, “Terrorists hit London – Hundreds injured in rush-hour attacks,” The Australian, July 8, 2005.","Alan Cowell, Raymond Bonner, ""Changes in investigation of bombing attacks in London leave major questions unanswered,"" The New York Times, August 15, 2008.",CETIS,1,1,1,1,"200507070004, 200507070001, 200507070002, 200507070003"
2011,7,22,,0,,151,Norway,8,Western Europe,Buskerud,Utoya,60.023268,10.24768,1,0,"The attack took place at a youth camp on the island of Utoya, just outside of Oslo, Oslo province, Norway.","07/22/2011: On Friday afternoon, in Hole, Buskerud County, Norway, in one of two related attacks, a man identified as Anders Breivik and dressed as a police officer, rode a ferry from the city to the island of Utoya, which is the location of a youth camp that is run by Norway's ruling Labor Party. He told the ferry driver that he needed to go to the island and check that everything was secure because of the bombing that just took place in the city. Once on the island, Breivik identified himself as a police officer and then opened fire on the camp attendees with his semi-automatic, 5.56 caliber Ruger Mini-14 rifle and a 9 millimeter Glock pistol. Due to the camp's location on the remote island, Breivik was able to kill 69 people and injure at least 60 others, including teenagers, before the police could reach the scene. The attack caused an unknown amount of property damage to the camp. Once the police arrived Breivik surrendered without a fight and was taken into custody. Breivik confessed to the attacks and in August 2012 he was sentenced to 21 years in prison.",1,1,1,0,,,1,1,0,2,Armed Assault,,,,,14,Private Citizens & Property,67,Unnamed Civilian/Unspecified,,Civilians,151,Norway,,,,,,,,,,,,,,,,,Right-wing extremists,,,,,,The specific motive for the attack was Anders Breivik’s belief that Labor Party is Marxist-oriented and encourages multiculturalism.,0,,,1,1,1,1,8,Personal claim,,,,,,,,5,Firearms,6,Other Gun Type,5,Firearms,3,Handgun,,,,,,,,,"A semi-automatic, 5.56 caliber Ruger Mini-14 rifle and a 9 millimeter Glock pistol were used in the attack.",69,0,0,60,0,0,1,3,Minor (likely < $1 million),,The attack caused an unknown amount of property damage to the camp.,0,,,,,,,,,,,,,,,,,"Stratfor, Scott Stewart, ""Norway: Lessons from a Successful Lone Wolf Attacker,"" http://www.stratfor.com/weekly/20110727-norway-lessons-successful-lone-wolf-attacker (July 28, 2011).","Reuters, ""Norway Police Detonate Explosives at Killer's Farm,"" Reuters, July 26, 2011, http://www.trust.org/alertnet/news/norway-police-detonate-explosives-at-killers-farm/.","Lewis, Mark and Sarah Lyall, ""Norway Mass Killer Gets the Maximum: 21 Years,""The New York Times"", August 24, 2012",ISVG,-9,-9,0,-9,"201107220011, 201107220012"
2016,3,22,,0,,21,Belgium,8,Western Europe,Flanders,Zaventem,50.897758,4.478382,1,0,,"03/22/2016: Two suicide bombers with explosives-laden suitcases detonated at a check-in counter at Brussels Airport in Zaventem, Flemish Brabant, Belgium. In addition to the two bombers, at least 16 people were killed, including four United States citizens, in the blasts. A third explosive device was discovered and defused by security following the incident. This was one of two coordinated attacks targeting transportation infrastructure in Brussels on the same day. Additionally, at least 270 people were injured across both incidents. The Islamic State of Iraq and the Levant (ISIL) claimed responsibility and stated that the attacks were carried out in retaliation for Belgium's participation in a coalition against ISIL.",1,1,1,0,,,1,1,1,3,Bombing/Explosion,,,,,6,Airports & Aircraft,44,Airport,Brussels Airport,Departure Hall,21,Belgium,14,Private Citizens & Property,14,Judge/Attorney/Court,Not Applicable,Civilians,999,Multinational,,,,,,,,,Islamic State of Iraq and the Levant (ISIL),,,,,,The Islamic State of Iraq and the Levant (ISIL) claimed responsibility for the incident and stated that the attack was carried out in retaliation for Belgium's participation in a coalition against ISIL.,0,,,0,3,1,1,7,"Posted to website, blog, etc.",,,,,,,,6,Explosives/Bombs/Dynamite,13,Suicide (carried bodily by human being),,,,,,,,,,,,,Three explosives-laden suitcases containing TATP explosives and nails were used in the attack.,18,4,2,135,8,0,1,4,Unknown,-99,An airport was damaged in this attack.,0,,,,,,,,,,,,,,,,"The victims included United States citizens Bruce Baldwin, Stephanie Shults, Justin Shults, Gail Minglana Martinez, Mason Wells, Joseph Empey, Richard Norby, Lieutenant Colonel Kato Martinez, and French citizen Fanny Clain. The victims included citizens from Belgium, China, Colombia, Ecuador, France, Germany, Hungary, India, Italy, Liberia, Morocco, the Netherlands, Peru, Poland, Portugal, Romania, Spain, Sweden, the United Kingdom, and the United States. Casualty numbers for this incident conflict across sources. Following GTD protocol, the most recent reliable estimates are reported here. Wounded numbers for this attack represent a division of a cumulative total of killed and wounded across incidents 201603220001 and 201603220002.","""Belgium attacks: Mohamed Abrini 'admits being man in the hat',"" BBC, April 9, 2016.","""Brothers ID'd as suicide bombers in Belgium, 1 suspect 'on the run',"" CNN, March 24, 2016.","""Brussels - Belgium names suicide bomber brothers as nation mourns,"" AFP (North European Service), March 23, 2016.",START Primary Collection,1,1,1,1,"201603220001, 201603220002"
2016,3,22,,0,,21,Belgium,8,Western Europe,Brussels,Brussels,50.843889,4.376667,1,0,The incident occurred at the Maalbeek Metro Station.,"03/22/2016: A suicide bomber detonated at the Maalbeek Metro Station in Brussels, Belgium. In addition to the bomber, at least 16 people were killed in the blast. This was one of two coordinated attacks targeting transportation infrastructure in Brussels on the same day. Additionally, at least 270 people were injured across both incidents. The Islamic State of Iraq and the Levant (ISIL) claimed responsibility and stated that the attacks were carried out in retaliation for Belgium's participation in a coalition against ISIL.",1,1,1,0,,,1,1,1,3,Bombing/Explosion,,,,,19,Transportation,102,Subway,Brussels Intermunicipal Transport Company (STIB-MIVB),Maalbeek Metro Station,21,Belgium,14,Private Citizens & Property,14,Judge/Attorney/Court,Not Applicable,Civilians,999,Multinational,,,,,,,,,Islamic State of Iraq and the Levant (ISIL),,,,,,The Islamic State of Iraq and the Levant (ISIL) claimed responsibility for the incident and stated that the attack was carried out in retaliation for Belgium's participation in a coalition against ISIL.,0,,,0,1,0,1,7,"Posted to website, blog, etc.",,,,,,,,6,Explosives/Bombs/Dynamite,13,Suicide (carried bodily by human being),,,,,,,,,,,,,An explosive device containing TATP explosives was used in the attack.,17,0,1,135,0,0,1,4,Unknown,-99,A subway station and a train were damaged in this attack.,0,,,,,,,,,,,,,,,,"The victims included citizens from Belgium, China, Colombia, Ecuador, France, Germany, Hungary, India, Italy, Liberia, Morocco, the Netherlands, Peru, Poland, Portugal, Romania, Spain, Sweden, the United Kingdom, and the United States. Casualty numbers for this incident conflict across sources. Following GTD protocol, the most recent reliable estimates are reported here. Wounded numbers for this attack represent a division of a cumulative total of killed and wounded across incidents 201603220001 and 201603220002.","""Belgium attacks: Mohamed Abrini 'admits being man in the hat',"" BBC, April 9, 2016.","""Brothers ID'd as suicide bombers in Belgium, 1 suspect 'on the run',"" CNN, March 24, 2016.","""Brussels - Belgium names suicide bomber brothers as nation mourns,"" AFP (North European Service), March 23, 2016.",START Primary Collection,1,1,1,1,"201603220001, 201603220002"
2016,7,14,,0,,69,France,8,Western Europe,Provence-Alpes-Cote d'Azur,Nice,43.693611,7.255833,1,0,,"07/14/2016: An assailant rammed a truck into a crowd celebrating Bastille Day in Nice, France. The assailant, identified as Mohamed Lahouaiej-Bouhlel, opened fire on police officers before being shot and killed. In addition to the assailant, 86 people were killed and 433 people were injured in the attack. The Islamic State of Iraq and the Levant (ISIL) claimed responsibility for the incident; however, Bouhlel's connection to ISIL could not be confirmed.",1,1,1,0,,,0,1,0,2,Armed Assault,,,,,14,Private Citizens & Property,78,"Procession/Gathering (funeral, wedding, birthday, religious)",Not Applicable,Bastille Day Celebration,69,France,14,Private Citizens & Property,14,Judge/Attorney/Court,Not Applicable,Civilians,999,Multinational,,,,,,,,,Jihadi-inspired extremists,,,,,,"The specific motive is unknown; however, sources noted that Mohamed Bouhlel had indicated that he supported the Islamic State of Iraq and the Levant (ISIL).",0,,,1,1,0,0,,,,,,,,,,5,Firearms,3,Handgun,10,"Vehicle (not to include vehicle-borne explosives, i.e., car or truck bombs)",,,7,Fake Weapons,,,,,,,"A 7.56-mm handgun, a Renault Midlum cargo truck, a replica handgun, two replica assault rifles, and a fake grenade were used in the attack.",87,3,1,433,1,0,-9,,,,,0,,,,,,,,,,,,,,,,"Casualty numbers for this incident conflict across sources. Following GTD protocol, the most recent reliable estimates are reported here.","""Attack on Nice: Who was Mohamed Lahouaiej-Bouhlel?,"" BBC, August 19, 2016.","""Secretary of State John Kerry visits American injured in Nice terror attack,"" New York Daily News, July 24, 2016.","""Nice, France attacker reportedly recruited by Algerian ISIS fighter, researched Orlando massacre,"" The Associated Press, July 18, 2016.",START Primary Collection,-9,-9,1,1,
2016,7,22,,0,,75,Germany,8,Western Europe,Bavaria,Munich,48.183329,11.531643,1,0,,"07/22/2016: An assailant opened fire on civilians at a shopping mall in Munich, Bavaria, Germany. At least nine people were killed and 27 people were injured in the assault before the assailant fled and later killed himself. No group claimed responsibility for the incident; however, sources attributed the attack to David Ali Sonboly.",1,1,1,0,,,0,1,0,2,Armed Assault,,,,,14,Private Citizens & Property,67,Unnamed Civilian/Unspecified,Not Applicable,Civilians,999,Multinational,,,,,,,,,,,,,,,,,Right-wing extremists,,,,,,"The specific motive is unknown; however, sources noted that David Ali Sonboly did not like ""Turkish people and Arabs.""",0,,,1,1,0,0,,,,,,,,,,5,Firearms,3,Handgun,,,,,,,,,,,,,A 9-mm Glock pistol was used in the attack.,10,0,1,27,0,0,0,,,,,0,,,,,,,,,,,,,,,,"The victims included Turkish citizens Sevda Dag, Selcuk Kilic, and Can Leyla; German citizens Giuliano Kollmann and Dijamant Zabergja; Kosovar citizens Sabina Sulaj and Armela Segashi; Greek citizen Huseyin Dayicik; and Hungarian citizen Roberto Rafael. Casualty numbers for this attack conflict across sources. Following GTD protocol, the majority reliable estimates are reported here.","""Munich gunman was far-right racist: media reports,"" The Local Germany, July 27, 2016.","""Attacks in Germany: responding to ‘terrorism’,"" Irish Times, July 25, 2016.","""Singapore: Islamic State group claims second German attack in a week,"" Channel NewsAsia Online, July 25, 2016.",START Primary Collection,-9,-9,1,1,
2016,11,20,,0,,69,France,8,Western Europe,Ile-de-France,Paris,48.867376,2.364219,1,0,The incident occurred at the Place de la Republique.,"11/20/2016: Assailants attacked protesters in Paris, France. At least 15 protesters were injured in the attack. No group claimed responsibility for the incident.",1,1,1,0,,,0,1,0,8,Unarmed Assault,,,,,14,Private Citizens & Property,83,Protester,Not Applicable,Protesters,209,Turkey,,,,,,,,,,,,,,,,,Unknown,,,,,,"The specific motive is unknown; however, sources noted that the assailants were pro-Kurdistan Workers' Party (PKK).",0,,,0,-99,0,0,,,,,,,,,,9,Melee,21,Blunt Object,,,,,,,,,,,,,Iron sticks were used in the attack.,0,0,0,15,0,0,0,,,,,0,,,,,,,,,,,,,,,,,"""PKK supporters attack Turkish protesters in Paris,"" Anadolu Ajansi, November 20, 2016.",,,START Primary Collection,-9,-9,1,1,
2016,12,19,,0,,75,Germany,8,Western Europe,Berlin,Berlin,52.504886,13.335511,1,0,The incident occurred in the Breitscheidplatz area of the city.,"12/19/2016: An assailant drove a truck into a Christmas market in Breitscheidplatz, Berlin, Germany. At least 12 people were killed and 48 people, including two United States citizens, were injured in the attack. This was one of two attacks carried out on the same day; in an earlier event, the assailant hijacked the vehicle and killed the driver. The assailant, identified as Anis Amri, had pledged allegiance to the Islamic State of Iraq and the Levant (ISIL). In addition, ISIL claimed responsibility for the incident; however, the assailant's connection to the group could not be confirmed. Amri was killed several days later by police officers in Milan, Italy.",1,1,1,0,,,1,1,0,8,Unarmed Assault,,,,,14,Private Citizens & Property,74,Marketplace/Plaza/Square,Unknown,Breitscheidplatz Christmas Market,75,Germany,14,Private Citizens & Property,14,Judge/Attorney/Court,Not Applicable,Civilians,999,Multinational,,,,,,,,,Jihadi-inspired extremists,,,,,,"An unaffiliated individual, identified as Anis Amri, claimed responsibility for the incident and pledged allegiance to the Islamic State of Iraq and the Levant (ISIL).",0,,,1,1,0,1,6,Video,,,,,,,,10,"Vehicle (not to include vehicle-borne explosives, i.e., car or truck bombs)",,,,,,,,,,,,,,,A Scania R 450 semi-trailer truck was used in the attack.,12,0,0,48,2,0,1,3,Minor (likely < $1 million),-99,Stalls at a Christmas market were damaged in this attack.,0,,,,,,,,,,,,,,,,,"""Berlin - Berlin truck attack: the investigation so far,"" AFP (North European Service), December 21, 2016.","""Reports: Berlin attack suspect Anis Amri shot dead in Italy,"" USA Today, December 23, 2016.","""BROWNSVILLE MAN AMONG 2 AMERICANS HURT IN BERLIN CHRISTMAS MARKET ATTACK,"" ABC 13 KTRK-TV (Houston), December 22, 2016.",START Primary Collection,-9,-9,1,1,"201612190002, 201612190003"
